OCO 2                   
1 40059U 14035A   26032.87669368  .00000577  00000+0  13810-3 0  9991
2 40059  98.2273 336.1779 0001562  74.8096 285.3275 14.57130013616342
BRITE-PL2 (HEWELIUSZ)   
1 40119U 14049B   26032.84296784  .00002783  00000+0  26635-3 0  9998
2 40119  97.8981 143.9745 0013948 193.5867 166.4980 14.93973463621233
MMS 1                   
1 40482U 15011A   26033.00002315 -.00002107  00000+0  00000+0 0  9990
2 40482  70.3087 350.6479 8449918 164.5870 189.5928  0.28335480  1379
MMS 2                   
1 40483U 15011B   26033.00002315 -.00002107  00000+0  00000+0 0  9991
2 40483  70.3052 350.6390 8451492 164.6032 189.5578  0.28335472  1377
MMS 3                   
1 40484U 15011C   26033.00002315 -.00002107  00000+0  00000+0 0  9992
2 40484  70.3129 350.6548 8451467 164.5996 189.5511  0.28335978  1376
MMS 4                   
1 40485U 15011D   26033.00002315 -.00002108  00000+0  00000+0 0  9994
2 40485  70.3119 350.6467 8452646 164.5853 189.5889  0.28335451  1372
ASTROSAT                
1 40930U 15052A   26032.05153726  .00002113  00000+0  17679-3 0  9990
2 40930   5.9981  55.0504 0008791 252.3050 107.6118 14.82182362559595
DAMPE                   
1 41173U 15078A   26032.97037834  .00001705  00000+0  60611-4 0  9991
2 41173  97.4560  37.8057 0011616 187.9825 172.1232 15.30364047563863
PISAT                   
1 41784U 16059B   26032.92201140  .00001320  00000+0  23367-3 0  9996
2 41784  97.8173  39.2225 0027707 278.2999  81.5065 14.68671864499887
HXMT (HUIYAN)           
1 42758U 17034A   26032.96433125  .00004463  00000+0  23102-3 0  9994
2 42758  43.0124 215.2190 0031767   6.3895 353.7352 15.16979691477119
FLYING LAPTOP           
1 42831U 17042G   26032.96475874  .00003948  00000+0  31906-3 0  9990
2 42831  97.4204 194.2515 0015175 220.0248 139.9859 15.00261966466174
ZHANGHENG 1-01 (CSES-1) 
1 43194U 18015C   26032.99373094  .00009743  00000+0  44062-3 0  9994
2 43194  97.6691 196.0745 0016368  26.6123 333.5949 15.21020396444093
SALSAT                  
1 46495U 20068K   26032.97802238  .00008632  00000+0  32407-3 0  9993
2 46495  97.8820  28.0663 0012050  61.9502 298.2953 15.27407493294702
IXPE                    
1 49954U 21121A   26032.91668981  .00010344  00000+0  58350-3 0  9994
2 49954   0.2286 259.5356 0007353 192.1723 248.4042 15.08701296  5377
